TELSTAR 12V             
1 41036U 15068A   16145.04571307 -.00000118  00000-0  00000+0 0  9998
2 41036   0.0285 120.7140 0001726 293.1268 189.7007  1.00272084  1864
CHINASAT 1C (ZX 1C)     
1 41103U 15073A   16146.11537501 -.00000151  00000-0  00000+0 0  9993
2 41103   0.0005  19.1745 0001125  46.7377 300.3434  1.00272199  1825
ELEKTRO-L 2             
1 41105U 15074A   16145.92502019 -.00000114  00000-0  00000+0 0  9999
2 41105   0.1339 282.0904 0002316 167.5708 204.0760  1.00270883  1661
COSMOS 2513             
1 41121U 15075A   16145.88120387 -.00000138  00000-0  00000+0 0  9993
2 41121   0.0195 348.7041 0003651 101.0879 190.5880  1.00271190  1748
EXPRESS-AMU1            
1 41191U 15082A   16146.01143838  .00000156  00000-0  00000+0 0  9999
2 41191   0.0044 256.1133 0002305 155.6528 231.4868  1.00271943  1650
GAOFEN 4                
1 41194U 15083A   16145.92810542 -.00000335  00000-0  00000+0 0  9995
2 41194   0.3013 262.3060 0002313 283.7942 136.8954  1.00266819  1630
BELINTERSAT-1           
1 41238U 16001A   16146.00355216  .00000107  00000-0  10000-3 0  9998
2 41238   0.0222 311.3126 0001761 105.8170 238.6549  1.00271338  1429
IRNSS-1E                
1 41241U 16003A   16145.89959932 -.00000260  00000-0  00000+0 0  9991
2 41241  28.2022 121.5162 0020315 186.2393  10.6794  1.00266041  1346
INTELSAT 29E (IS-29E)   
1 41308U 16004A   16146.19872457 -.00000282  00000-0  00000+0 0  9990
2 41308   0.0435  27.7926 0002862  25.9074 211.0669  1.00271155  1309
EUTELSAT 9B             
1 41310U 16005A   16144.20204730  .00000063  00000-0  00000+0 0  9993
2 41310   0.0880 121.9534 0001023 298.3058 262.7237  1.00274100  1233
IRNSS-1F                
1 41384U 16015A   16144.87857144  .00000158  00000-0  00000+0 0  9996
2 41384   4.9615 273.3833 0021774 177.4327 139.7894  1.00270655   825
BEIDOU IGSO 6           
1 41434U 16021A   16145.88710188 -.00000137  00000-0  10000-3 0  9990
2 41434  55.0336  76.6866 0024287 180.5426  40.0520  1.00276588   635
